{
  "type": "FeatureCollection",
  "features": [
    {
      "type": "Feature",
      "properties": {
        "norad_id": 43260,
        "name": "GAOFEN-1 03",
        "group": "resource",
        "lat": -43.659811860811686,
        "lon": 48.6953119282272,
        "alt_km": 645.8436692674322,
        "timestamp": "2025-12-09T05:43:20.385421+00:00",
        "meta_object_name": "GAOFEN-1 03",
        "meta_object_id": "2018-031B",
        "meta_epoch": "2025-12-08T20:09:46.617696",
        "meta_mean_motion": 14.76425887,
        "meta_eccentricity": 0.0002249,
        "meta_inclination": 98.0804,
        "meta_ra_of_asc_node": 40.5052,
        "meta_arg_of_pericenter": 339.0767,
        "meta_mean_anomaly": 21.035,
        "meta_ephemeris_type": 0,
        "meta_classification_type": "U",
        "meta_norad_cat_id": 43260,
        "meta_element_set_no": 999,
        "meta_rev_at_epoch": 41460,
        "meta_bstar": 0.00028305,
        "meta_mean_motion_dot": 1.916e-05,
        "meta_mean_motion_ddot": 0,
        "tle_line1": "1 43260U 18031B   25342.84012289  .00001916  00000+0  28305-3 0  9995",
        "tle_line2": "2 43260  98.0804  40.5052 0002249 339.0767  21.0350 14.76425887414602"
      },
      "geometry": {
        "type": "Point",
        "coordinates": [
          48.6953119282272,
          -43.659811860811686
        ]
      }
    },
    {
      "type": "Feature",
      "properties": {
        "norad_id": 43262,
        "name": "GAOFEN-1 04",
        "group": "resource",
        "lat": 80.553320198179,
        "lon": -17.5666800565052,
        "alt_km": 632.4263880464205,
        "timestamp": "2025-12-09T05:43:20.385431+00:00",
        "meta_object_name": "GAOFEN-1 04",
        "meta_object_id": "2018-031D",
        "meta_epoch": "2025-12-08T21:12:21.056256",
        "meta_mean_motion": 14.76437888,
        "meta_eccentricity": 0.0001231,
        "meta_inclination": 98.081,
        "meta_ra_of_asc_node": 40.7174,
        "meta_arg_of_pericenter": 55.6009,
        "meta_mean_anomaly": 304.5317,
        "meta_ephemeris_type": 0,
        "meta_classification_type": "U",
        "meta_norad_cat_id": 43262,
        "meta_element_set_no": 999,
        "meta_rev_at_epoch": 41460,
        "meta_bstar": 0.00022342,
        "meta_mean_motion_dot": 1.502e-05,
        "meta_mean_motion_ddot": 0,
        "tle_line1": "1 43262U 18031D   25342.88357704  .00001502  00000+0  22342-3 0  9991",
        "tle_line2": "2 43262  98.0810  40.7174 0001231  55.6009 304.5317 14.76437888414604"
      },
      "geometry": {
        "type": "Point",
        "coordinates": [
          -17.5666800565052,
          80.553320198179
        ]
      }
    },
    {
      "type": "Feature",
      "properties": {
        "norad_id": 43437,
        "name": "SENTINEL-3B",
        "group": "resource",
        "lat": 22.370104248474917,
        "lon": -127.94419459148183,
        "alt_km": 801.6008251651165,
        "timestamp": "2025-12-09T05:43:20.385442+00:00",
        "meta_object_name": "SENTINEL-3B",
        "meta_object_id": "2018-039A",
        "meta_epoch": "2025-12-08T18:53:20.893632",
        "meta_mean_motion": 14.26740881,
        "meta_eccentricity": 0.0001531,
        "meta_inclination": 98.627,
        "meta_ra_of_asc_node": 48.0287,
        "meta_arg_of_pericenter": 106.7171,
        "meta_mean_anomaly": 253.4177,
        "meta_ephemeris_type": 0,
        "meta_classification_type": "U",
        "meta_norad_cat_id": 43437,
        "meta_element_set_no": 999,
        "meta_rev_at_epoch": 39697,
        "meta_bstar": 0.00014972,
        "meta_mean_motion_dot": 3.19e-06,
        "meta_mean_motion_ddot": 0,
        "tle_line1": "1 43437U 18039A   25342.78704738  .00000319  00000+0  14972-3 0  9990",
        "tle_line2": "2 43437  98.6270  48.0287 0001531 106.7171 253.4177 14.26740881396971"
      },
      "geometry": {
        "type": "Point",
        "coordinates": [
          -127.94419459148183,
          22.370104248474917
        ]
      }
    },
    {
      "type": "Feature",
      "properties": {
        "norad_id": 43461,
        "name": "GAOFEN-5 01",
        "group": "resource",
        "lat": 78.78482290034336,
        "lon": -102.28168100225137,
        "alt_km": 684.4959332150102,
        "timestamp": "2025-12-09T05:43:20.385452+00:00",
        "meta_object_name": "GAOFEN-5 01",
        "meta_object_id": "2018-043A",
        "meta_epoch": "2025-12-08T19:28:46.412256",
        "meta_mean_motion": 14.60404335,
        "meta_eccentricity": 0.0001232,
        "meta_inclination": 98.4319,
        "meta_ra_of_asc_node": 305.7104,
        "meta_arg_of_pericenter": 355.0577,
        "meta_mean_anomaly": 5.061,
        "meta_ephemeris_type": 0,
        "meta_classification_type": "U",
        "meta_norad_cat_id": 43461,
        "meta_element_set_no": 999,
        "meta_rev_at_epoch": 40390,
        "meta_bstar": 0.00022964,
        "meta_mean_motion_dot": 1.063e-05,
        "meta_mean_motion_ddot": 0,
        "tle_line1": "1 43461U 18043A   25342.81164829  .00001063  00000+0  22964-3 0  9994",
        "tle_line2": "2 43461  98.4319 305.7104 0001232 355.0577   5.0610 14.60404335403902"
      },
      "geometry": {
        "type": "Point",
        "coordinates": [
          -102.28168100225137,
          78.78482290034336
        ]
      }
    },
    {
      "type": "Feature",
      "properties": {
        "norad_id": 43484,
        "name": "GAOFEN-6",
        "group": "resource",
        "lat": -54.257368416037906,
        "lon": -143.3617513731894,
        "alt_km": 656.108207266685,
        "timestamp": "2025-12-09T05:43:20.385462+00:00",
        "meta_object_name": "GAOFEN-6",
        "meta_object_id": "2018-048A",
        "meta_epoch": "2025-12-08T20:31:49.450080",
        "meta_mean_motion": 14.76553809,
        "meta_eccentricity": 0.0013307,
        "meta_inclination": 97.8034,
        "meta_ra_of_asc_node": 47.2527,
        "meta_arg_of_pericenter": 74.6921,
        "meta_mean_anomaly": 285.5759,
        "meta_ephemeris_type": 0,
        "meta_classification_type": "U",
        "meta_norad_cat_id": 43484,
        "meta_element_set_no": 999,
        "meta_rev_at_epoch": 40530,
        "meta_bstar": 0.00012421,
        "meta_mean_motion_dot": 8.18e-06,
        "meta_mean_motion_ddot": 0,
        "tle_line1": "1 43484U 18048A   25342.85543345  .00000818  00000+0  12421-3 0  9996",
        "tle_line2": "2 43484  97.8034  47.2527 0013307  74.6921 285.5759 14.76553809405307"
      },
      "geometry": {
        "type": "Point",
        "coordinates": [
          -143.3617513731894,
          -54.257368416037906
        ]
      }
    },
    {
      "type": "Feature",
      "properties": {
        "norad_id": 43585,
        "name": "GAOFEN-11 01",
        "group": "resource",
        "lat": -27.96866292488591,
        "lon": -137.62351093629317,
        "alt_km": 427.1249745898649,
        "timestamp": "2025-12-09T05:43:20.385473+00:00",
        "meta_object_name": "GAOFEN-11 01",
        "meta_object_id": "2018-063A",
        "meta_epoch": "2025-12-08T21:04:28.577856",
        "meta_mean_motion": 15.49044154,
        "meta_eccentricity": 0.0004592,
        "meta_inclination": 97.156,
        "meta_ra_of_asc_node": 45.8446,
        "meta_arg_of_pericenter": 332.1914,
        "meta_mean_anomaly": 27.9091,
        "meta_ephemeris_type": 0,
        "meta_classification_type": "U",
        "meta_norad_cat_id": 43585,
        "meta_element_set_no": 999,
        "meta_rev_at_epoch": 41082,
        "meta_bstar": 0.00017402,
        "meta_mean_motion_dot": 9.343e-05,
        "meta_mean_motion_ddot": 0,
        "tle_line1": "1 43585U 18063A   25342.87810854  .00009343  00000+0  17402-3 0  9995",
        "tle_line2": "2 43585  97.1560  45.8446 0004592 332.1914  27.9091 15.49044154410829"
      },
      "geometry": {
        "type": "Point",
        "coordinates": [
          -137.62351093629317,
          -27.96866292488591
        ]
      }
    },
    {
      "type": "Feature",
      "properties": {
        "norad_id": 43613,
        "name": "ICESAT-2",
        "group": "resource",
        "lat": -27.59317059880889,
        "lon": 58.743444802915995,
        "alt_km": 486.04909128741474,
        "timestamp": "2025-12-09T05:43:20.385483+00:00",
        "meta_object_name": "ICESAT-2",
        "meta_object_id": "2018-070A",
        "meta_epoch": "2025-12-08T19:23:17.229984",
        "meta_mean_motion": 15.28246408,
        "meta_eccentricity": 0.0002129,
        "meta_inclination": 92.0044,
        "meta_ra_of_asc_node": 239.6761,
        "meta_arg_of_pericenter": 158.9511,
        "meta_mean_anomaly": 201.1826,
        "meta_ephemeris_type": 0,
        "meta_classification_type": "U",
        "meta_norad_cat_id": 43613,
        "meta_element_set_no": 999,
        "meta_rev_at_epoch": 40338,
        "meta_bstar": 0.00065574,
        "meta_mean_motion_dot": 0.00018057,
        "meta_mean_motion_ddot": 0,
        "tle_line1": "1 43613U 18070A   25342.80783831  .00018057  00000+0  65574-3 0  9997",
        "tle_line2": "2 43613  92.0044 239.6761 0002129 158.9511 201.1826 15.28246408403384"
      },
      "geometry": {
        "type": "Point",
        "coordinates": [
          58.743444802915995,
          -27.59317059880889
        ]
      }
    }
  ]
}